NOAA 15                 
1 25338U 98030A   24353.12058639  .00000391  00000+0  17875-3 0  9995
2 25338  98.5526  16.2866 0010908 142.4998 217.6946 14.26828523383664
NOAA 18                 
1 28654U 05018A   24353.13100204  .00000467  00000+0  27190-3 0  9995
2 28654  98.8604  68.4571 0013277 260.6094  99.3578 14.13455819  9247
NOAA 19                 
1 33591U 09005A   24353.10956097  .00000408  00000+0  24185-3 0  9993
2 33591  99.0239  50.6510 0014548 131.6276 228.6144 14.13232329817609
METOP-B                 
1 38771U 12049A   24353.09585359  .00000338  00000+0  17454-3 0  9990
2 38771  98.6052  45.9670 0001728 115.5862 244.5494 14.21386178635675
SARAL                   
1 39086U 13009A   24352.91878553  .00000330  00000+0  13752-3 0  9997
2 39086  98.5482 175.5468 0002940  97.8040 262.3478 14.32609443617386
METOP-C                 
1 43689U 18087A   24353.06699100  .00000346  00000+0  17801-3 0  9994
2 43689  98.7008  49.9677 0000261 305.2368  54.8785 14.21496467317240
ANGELS                  
1 44876U 19092D   24352.79205804  .00014868  00000+0  47638-3 0  9998
2 44876  97.4630 182.2150 0009698  35.7665 324.4225 15.32422767277426
OTB-3-GAZELLE           
1 54023U 22127A   24352.69360772  .00000398  00000+0  13347-3 0  9994
2 54023  98.3561 343.0895 0014063  41.6177 318.6081 14.42347125115579
EOS-6 (OCEANSAT-3)      
1 54361U 22158A   24353.16167416  .00000941  00000+0  27092-3 0  9992
2 54361  98.3544  87.7310 0001321 108.7382 251.3953 14.46969496108876
